*******************************************************************************
Revised: April 12, 2021         Earth Barycenter                              3
 
 Dynamical point:
 ---------------
 The common point about which the Earth and Moon revolve (center of mass). This
 is approximately 4671 km from the center of the Earth, or about 3/4 of the way 
 to the surface. See 399 for Earth center, or 301 for Moon center ephemeris.
*******************************************************************************


*******************************************************************************
Ephemeris / WWW_USER Mon Mar  6 15:57:46 2023 Pasadena, USA      / Horizons
*******************************************************************************
Target body name: Earth-Moon Barycenter (3)       {source: DE441}
Center body name: Solar System Barycenter (0)     {source: DE441}
Center-site name: BODY CENTER
*******************************************************************************
Start time      : A.D. 2022-Nov-16 09:03:00.0000 TDB
Stop  time      : A.D. 2022-Dec-11 17:21:14.7640 TDB
Step-size       : 1440 minutes
*******************************************************************************
Center geodetic : 0.0, 0.0, 0.0                   {E-lon(deg),Lat(deg),Alt(km)}
Center cylindric: 0.0, 0.0, 0.0                   {E-lon(deg),Dxy(km),Dz(km)}
Center radii    : (undefined)
Output units    : KM-S
Calendar mode   : Mixed Julian/Gregorian
Output type     : GEOMETRIC cartesian states
Output format   : 3 (position, velocity, LT, range, range-rate)
Reference frame : Ecliptic of J2000.0
*******************************************************************************
            JDTDB,            Calendar Date (TDB),                      X,                      Y,                      Z,                     VX,                     VY,                     VZ,                     LT,                     RG,                     RR,
**************************************************************************************************************************************************************************************************************************************************************************
$$SOE
2459899.877083333, A.D. 2022-Nov-16 09:03:00.0000,  8.630066413415760E+07,  1.192637610711115E+08,  2.441383685100079E+04, -2.448026575464039E+01,  1.752105141231084E+01, -6.650858385235381E-04,  4.910495139020603E+02,  1.472129407724038E+08, -1.564856973175523E-01,
2459900.877083333, A.D. 2022-Nov-17 09:03:00.0000,  8.417226832381296E+07,  1.207592696081231E+08,  2.435735875301808E+04, -2.478693297722191E+01,  1.709627175499133E+01, -6.422349991881404E-04,  4.910055838381238E+02,  1.471997708705562E+08, -1.483636750406812E-01,
2459901.877083333, A.D. 2022-Nov-18 09:03:00.0000,  8.201769494213195E+07,  1.222178379645469E+08,  2.430286589907855E+04, -2.508621046727440E+01,  1.666597599634279E+01, -6.191322085769002E-04,  4.909640025982882E+02,  1.471873051284592E+08, -1.401861291342831E-01,
2459902.877083333, A.D. 2022-Nov-19 09:03:00.0000,  7.983758698817237E+07,  1.236389951164064E+08,  2.425037977801263E+04, -2.537799382831595E+01,  1.623029336921468E+01, -5.957839040613422E-04,  4.909247858150295E+02,  1.471755482326112E+08, -1.319556266003518E-01,
2459903.877083333, A.D. 2022-Nov-20 09:03:00.0000,  7.763259638270481E+07,  1.250222812989753E+08,  2.419992133060098E+04, -2.566218094385877E+01,  1.578935526509052E+01, -5.721963579308209E-04,  4.908879483781477E+02,  1.471645046468620E+08, -1.236747537981652E-01,
2459904.877083333, A.D. 2022-Nov-21 09:03:00.0000,  7.540338376911765E+07,  1.263672481915799E+08,  2.415151095704734E+04, -2.593867202597499E+01,  1.534329519430055E+01, -5.483758434854380E-04,  4.908535044296307E+02,  1.471541786108729E+08, -1.153461134801008E-01,
2459905.877083333, A.D. 2022-Nov-22 09:03:00.0000,  7.315061831015803E+07,  1.276734590988697E+08,  2.410516850785911E+04, -2.620736966314616E+01,  1.489224874403574E+01, -5.243288475380581E-04,  4.908214673592569E+02,  1.471445741387984E+08, -1.069723227060075E-01,
2459906.877083333, A.D. 2022-Nov-23 09:03:00.0000,  7.087497748055527E+07,  1.289404891283624E+08,  2.406091325664520E+04, -2.646817886778675E+01,  1.443635353403123E+01, -5.000622726987203E-04,  4.907918498006239E+02,  1.471356950180959E+08, -9.855601203987940E-02,
2459907.877083333, A.D. 2022-Nov-24 09:03:00.0000,  6.857714685554969E+07,  1.301679253640435E+08,  2.401876385565102E+04, -2.672100712356927E+01,  1.397574916960275E+01, -4.755836188046203E-04,  4.907646636271696E+02,  1.471275448083324E+08, -9.009982641901249E-02,
2459908.877083333, A.D. 2022-Nov-25 09:03:00.0000,  6.625781989532021E+07,  1.313553670358205E+08,  2.397873828101158E+04, -2.696576443303995E+01,  1.351057719272417E+01, -4.509010374400546E-04,  4.907399199477437E+02,  1.471201268398573E+08, -8.160642733152594E-02,
2459909.877083333, A.D. 2022-Nov-26 09:03:00.0000,  6.391769772529254E+07,  1.325024256846746E+08,  2.394085377819091E+04, -2.720236336534326E+01,  1.304098103146346E+01, -4.260232679982323E-04,  4.907176291014103E+02,  1.471134442122441E+08, -7.307849584905295E-02,
2459910.877083333, A.D. 2022-Nov-27 09:03:00.0000,  6.155748891232541E+07,  1.336087253234074E+08,  2.390512681888044E+04, -2.743071910383774E+01,  1.256710594875540E+01, -4.009594400580241E-04,  4.906978006513795E+02,  1.471074997924711E+08, -6.451873543198809E-02,
2459911.877083333, A.D. 2022-Nov-28 09:03:00.0000,  5.917790923680935E+07,  1.346739025929632E+08,  2.387157307915390E+04, -2.765074949297588E+01,  1.208909899130428E+01, -3.757187931157091E-04,  4.906804433783018E+02,  1.471022962129109E+08, -5.592987338937831E-02,
2459912.877083333, A.D. 2022-Nov-29 09:03:00.0000,  5.677968146077243E+07,  1.356976069143553E+08,  2.384020744227618E+04, -2.786237508374710E+01,  1.160710893892206E+01, -3.503103954489717E-04,  4.906655652734212E+02,  1.470978358692784E+08, -4.731466034235243E-02,
2459913.877083333, A.D. 2022-Nov-30 09:03:00.0000,  5.436353509214136E+07,  1.366795006362285E+08,  2.381104402334243E+04, -2.806551917717247E+01,  1.112128625412520E+01, -3.247429357022824E-04,  4.906531735321822E+02,  1.470941209187135E+08, -3.867586765489893E-02,
2459914.877083333, A.D. 2022-Dec-01 09:03:00.0000,  5.193020614533758E+07,  1.376192591780602E+08,  2.378409620686620E+04, -2.826010786563340E+01,  1.063178303146166E+01, -2.990246318472778E-04,  4.906432745488150E+02,  1.470911532781581E+08, -3.001628333061650E-02,
2459915.877083333, A.D. 2022-Dec-02 09:03:00.0000,  4.948043689839485E+07,  1.385165711689469E+08,  2.375937668683380E+04, -2.844607007209689E+01,  1.013875294588651E+01, -2.731632665873285E-04,  4.906358739122284E+02,  1.470889346231250E+08, -2.133870718882227E-02,
2459916.877083333, A.D. 2022-Dec-03 09:03:00.0000,  4.701497564676978E+07,  1.393711385818664E+08,  2.373689749885350E+04, -2.862333758749324E+01,  9.642351199560251E+00, -2.471663269427715E-04,  4.906309764032926E+02,  1.470874663868831E+08, -1.264594617733504E-02,
2459917.877083333, A.D. 2022-Dec-04 09:03:00.0000,  4.453457645399089E+07,  1.401826768632593E+08,  2.371667003730685E+04, -2.879184510657583E+01,  9.142734466663356E+00, -2.210412053513799E-04,  4.906285859933698E+02,  1.470867497600167E+08, -3.940810485781597E-03,
2459918.877083333, A.D. 2022-Dec-05 09:03:00.0000,  4.203999889926407E+07,  1.409509150577516E+08,  2.369870505416393E+04, -2.895153026255805E+01,  8.640060836099860E+00, -1.947954137655472E-04,  4.906287058438036E+02,  1.470867856902728E+08,  4.773889192510751E-03,
2459919.877083333, A.D. 2022-Dec-06 09:03:00.0000,  3.953200782213043E+07,  1.416755959278372E+08,  2.368301264035702E+04, -2.910233366073276E+01,  8.134489752142651E+00, -1.684367704406498E-04,  4.906313383060197E+02,  1.470875748825912E+08,  1.349534315084947E-02,
2459920.877083333, A.D. 2022-Dec-07 09:03:00.0000,  3.701137306425820E+07,  1.423564760683429E+08,  2.366960219296068E+04, -2.924419891122028E+01,  7.626181953018296E+00, -1.419735354075691E-04,  4.906364849218628E+02,  1.470891177992052E+08,  2.222074282296592E-02,
2459921.877083333, A.D. 2022-Dec-08 09:03:00.0000,  3.447886920844048E+07,  1.429933260155181E+08,  2.365848237402737E+04, -2.937707266088414E+01,  7.115299408044724E+00, -1.154144634356591E-04,  4.906441464238467E+02,  1.470914146597169E+08,  3.094728017325142E-02,
2459922.877083333, A.D. 2022-Dec-09 09:03:00.0000,  3.193527531487330E+07,  1.435859303506370E+08,  2.364966106828302E+04, -2.950090462437467E+01,  6.602005253404795E+00, -8.876878600938554E-05,  4.906543227351437E+02,  1.470944654410940E+08,  3.967214643899272E-02,
2459923.877083333, A.D. 2022-Dec-10 09:03:00.0000,  2.938137465479156E+07,  1.441340877980046E+08,  2.364314534528553E+04, -2.961564761421548E+01,  6.086463726984292E+00, -6.204612113824837E-05,  4.906670129691619E+02,  1.470982698775429E+08,  4.839253069349982E-02,
2459924.877083333, A.D. 2022-Dec-11 09:03:00.0000,  2.681795444155283E+07,  1.446376113173091E+08,  2.363894143170118E+04, -2.972125756977050E+01,  5.568840102661383E+00, -3.525633613143953E-05,  4.906822154287460E+02,  1.471028274602692E+08,  5.710561868068158E-02,
